{"type": "FeatureCollection", "features": [ {"type": "Feature", "properties": {"norad_id": 33153, "name": "INTELSAT 25 (IS-25)", "group": "intelsat", "lat": -2.2053520976636993, "lon": -6.059435582827658, "alt_km": 35786.79824613843, "timestamp": "2025-12-06T20:37:55.726966+00:00", "meta": {"OBJECT_NAME": "INTELSAT 25 (IS-25)", "OBJECT_ID": "2008-034A", "EPOCH": "2025-12-06T11:48:15.274944", "MEAN_MOTION": 1.00270733, "ECCENTRICITY": 0.00054422, "INCLINATION": 2.2109, "RA_OF_ASC_NODE": 82.7166, "ARG_OF_PERICENTER": 181.0007, "MEAN_ANOMALY": 317.3863, "EPHEMERIS_TYPE": 0, "CLASSIFICATION_TYPE": "U", "NORAD_CAT_ID": 33153, "ELEMENT_SET_NO": 999, "REV_AT_EPOCH": 6376, "BSTAR": 0, "MEAN_MOTION_DOT": -2.18e-06, "MEAN_MOTION_DDOT": 0}, "tle": {"line1": "1 33153U 08034A   25340.49184346 -.00000218  00000+0  00000+0 0  9993", "line2": "2 33153   2.2109  82.7166 0005442 181.0007 317.3863  1.00270733 63769"}}, "geometry": {"type": "Point", "coordinates": [-6.059435582827658, -2.2053520976636993]}}, {"type": "Feature", "properties": {"norad_id": 33376, "name": "GALAXY 19 (G-19)", "group": "intelsat", "lat": -0.02493804314434618, "lon": -71.6177393669259, "alt_km": 35772.82640788888, "timestamp": "2025-12-06T20:37:55.726979+00:00", "meta": {"OBJECT_NAME": "GALAXY 19 (G-19)", "OBJECT_ID": "2008-045A", "EPOCH": "2025-12-06T10:57:14.757120", "MEAN_MOTION": 1.00270674, "ECCENTRICITY": 0.00034498, "INCLINATION": 0.0219, "RA_OF_ASC_NODE": 61.069, "ARG_OF_PERICENTER": 205.7865, "MEAN_ANOMALY": 235.9559, "EPHEMERIS_TYPE": 0, "CLASSIFICATION_TYPE": "U", "NORAD_CAT_ID": 33376, "ELEMENT_SET_NO": 999, "REV_AT_EPOCH": 6297, "BSTAR": 0, "MEAN_MOTION_DOT": -1.32e-06, "MEAN_MOTION_DDOT": 0}, "tle": {"line1": "1 33376U 08045A   25340.45642080 -.00000132  00000+0  00000+0 0  9997", "line2": "2 33376   0.0219  61.0690 0003449 205.7865 235.9559  1.00270674 62970"}}, "geometry": {"type": "Point", "coordinates": [-71.6177393669259, -0.02493804314434618]}}, {"type": "Feature", "properties": {"norad_id": 35493, "name": "FM-5", "group": "intelsat", "lat": -0.0057028137668242666, "lon": -60.762707361789204, "alt_km": 35784.24967897992, "timestamp": "2025-12-06T20:37:55.726991+00:00", "meta": {"OBJECT_NAME": "FM-5", "OBJECT_ID": "2009-034A", "EPOCH": "2025-12-06T09:49:56.606016", "MEAN_MOTION": 1.00277404, "ECCENTRICITY": 7.364e-05, "INCLINATION": 0.0186, "RA_OF_ASC_NODE": 289.1399, "ARG_OF_PERICENTER": 285.1276, "MEAN_ANOMALY": 282.5229, "EPHEMERIS_TYPE": 0, "CLASSIFICATION_TYPE": "U", "NORAD_CAT_ID": 35493, "ELEMENT_SET_NO": 999, "REV_AT_EPOCH": 4471, "BSTAR": 0, "MEAN_MOTION_DOT": -1.94e-06, "MEAN_MOTION_DDOT": 0}, "tle": {"line1": "1 35493U 09034A   25340.40968294 -.00000194  00000+0  00000+0 0  9999", "line2": "2 35493   0.0186 289.1399 0000736 285.1276 282.5229  1.00277404 44710"}}, "geometry": {"type": "Point", "coordinates": [-60.762707361789204, -0.0057028137668242666]}}, {"type": "Feature", "properties": {"norad_id": 36097, "name": "INTELSAT 14 (IS-14)", "group": "intelsat", "lat": 0.0020000056877052877, "lon": -19.59385173461275, "alt_km": 35784.59339725802, "timestamp": "2025-12-06T20:37:55.727004+00:00", "meta": {"OBJECT_NAME": "INTELSAT 14 (IS-14)", "OBJECT_ID": "2009-064A", "EPOCH": "2025-12-06T10:01:40.482624", "MEAN_MOTION": 1.00271178, "ECCENTRICITY": 0.00027344, "INCLINATION": 0.0097, "RA_OF_ASC_NODE": 338.1234, "ARG_OF_PERICENTER": 280.7547, "MEAN_ANOMALY": 282.0094, "EPHEMERIS_TYPE": 0, "CLASSIFICATION_TYPE": "U", "NORAD_CAT_ID": 36097, "ELEMENT_SET_NO": 999, "REV_AT_EPOCH": 5867, "BSTAR": 0, "MEAN_MOTION_DOT": -2.66e-06, "MEAN_MOTION_DDOT": 0}, "tle": {"line1": "1 36097U 09064A   25340.41782966 -.00000266  00000+0  00000+0 0  9994", "line2": "2 36097   0.0097 338.1234 0002734 280.7547 282.0094  1.00271178 58674"}}, "geometry": {"type": "Point", "coordinates": [-19.59385173461275, 0.0020000056877052877]}}, {"type": "Feature", "properties": {"norad_id": 36106, "name": "INTELSAT 15 (IS-15)", "group": "intelsat", "lat": 0.028546616938604944, "lon": 110.50548887170991, "alt_km": 35795.543212079065, "timestamp": "2025-12-06T20:37:55.727016+00:00", "meta": {"OBJECT_NAME": "INTELSAT 15 (IS-15)", "OBJECT_ID": "2009-067A", "EPOCH": "2025-12-06T12:21:34.583040", "MEAN_MOTION": 1.00270382, "ECCENTRICITY": 0.00025078, "INCLINATION": 0.0157, "RA_OF_ASC_NODE": 334.0261, "ARG_OF_PERICENTER": 284.9053, "MEAN_ANOMALY": 87.1736, "EPHEMERIS_TYPE": 0, "CLASSIFICATION_TYPE": "U", "NORAD_CAT_ID": 36106, "ELEMENT_SET_NO": 999, "REV_AT_EPOCH": 3929, "BSTAR": 0, "MEAN_MOTION_DOT": -1.78e-06, "MEAN_MOTION_DDOT": 0}, "tle": {"line1": "1 36106U 09067A   25340.51498360 -.00000178  00000+0  00000+0 0  9993", "line2": "2 36106   0.0157 334.0261 0002507 284.9053  87.1736  1.00270382 39293"}}, "geometry": {"type": "Point", "coordinates": [110.50548887170991, 0.028546616938604944]}}, {"type": "Feature", "properties": {"norad_id": 36131, "name": "DIRECTV 12", "group": "intelsat", "lat": -0.016842281592467687, "lon": -77.36871076546372, "alt_km": 35785.49068354569, "timestamp": "2025-12-06T20:37:55.727029+00:00", "meta": {"OBJECT_NAME": "DIRECTV 12", "OBJECT_ID": "2009-075A", "EPOCH": "2025-12-06T10:54:16.380864", "MEAN_MOTION": 1.00270908, "ECCENTRICITY": 5.3e-05, "INCLINATION": 0.0504, "RA_OF_ASC_NODE": 137.5191, "ARG_OF_PERICENTER": 212.695, "MEAN_ANOMALY": 146.1209, "EPHEMERIS_TYPE": 0, "CLASSIFICATION_TYPE": "U", "NORAD_CAT_ID": 36131, "ELEMENT_SET_NO": 999, "REV_AT_EPOCH": 4462, "BSTAR": 0, "MEAN_MOTION_DOT": -9.6e-07, "MEAN_MOTION_DDOT": 0}, "tle": {"line1": "1 36131U 09075A   25340.45435626 -.00000096  00000+0  00000+0 0  9998", "line2": "2 36131   0.0504 137.5191 0000530 212.6950 146.1209  1.00270908 44621"}}, "geometry": {"type": "Point", "coordinates": [-77.36871076546372, -0.016842281592467687]}}, {"type": "Feature", "properties": {"norad_id": 36397, "name": "INTELSAT 16 (IS-16)", "group": "intelsat", "lat": -0.008426030994554462, "lon": -50.803583803640116, "alt_km": 35778.110661085164, "timestamp": "2025-12-06T20:37:55.727041+00:00", "meta": {"OBJECT_NAME": "INTELSAT 16 (IS-16)", "OBJECT_ID": "2010-006A", "EPOCH": "2025-12-06T11:07:49.147392", "MEAN_MOTION": 1.00275053, "ECCENTRICITY": 0.00024844, "INCLINATION": 0.0133, "RA_OF_ASC_NODE": 313.3929, "ARG_OF_PERICENTER": 308.207, "MEAN_ANOMALY": 264.6636, "EPHEMERIS_TYPE": 0, "CLASSIFICATION_TYPE": "U", "NORAD_CAT_ID": 36397, "ELEMENT_SET_NO": 999, "REV_AT_EPOCH": 5772, "BSTAR": 0, "MEAN_MOTION_DOT": -2.38e-06, "MEAN_MOTION_DDOT": 0}, "tle": {"line1": "1 36397U 10006A   25340.46376328 -.00000238  00000+0  00000+0 0  9990", "line2": "2 36397   0.0133 313.3929 0002484 308.2070 264.6636  1.00275053 57722"}}, "geometry": {"type": "Point", "coordinates": [-50.803583803640116, -0.008426030994554462]}}, {"type": "Feature", "properties": {"norad_id": 37185, "name": "XM-5", "group": "intelsat", "lat": -0.02255725072502695, "lon": -89.80845687059887, "alt_km": 35788.41319972179, "timestamp": "2025-12-06T20:37:55.727054+00:00", "meta": {"OBJECT_NAME": "XM-5", "OBJECT_ID": "2010-053A", "EPOCH": "2025-12-06T11:24:17.568576", "MEAN_MOTION": 1.00271273, "ECCENTRICITY": 0.00014141, "INCLINATION": 0.0612, "RA_OF_ASC_NODE": 273.308, "ARG_OF_PERICENTER": 245.2139, "MEAN_ANOMALY": 332.8779, "EPHEMERIS_TYPE": 0, "CLASSIFICATION_TYPE": "U", "NORAD_CAT_ID": 37185, "ELEMENT_SET_NO": 999, "REV_AT_EPOCH": 5555, "BSTAR": 0, "MEAN_MOTION_DOT": -1.6e-07, "MEAN_MOTION_DDOT": 0}, "tle": {"line1": "1 37185U 10053A   25340.47520334 -.00000016  00000+0  00000+0 0  9991", "line2": "2 37185   0.0612 273.3080 0001414 245.2139 332.8779  1.00271273 55556"}}, "geometry": {"type": "Point", "coordinates": [-89.80845687059887, -0.02255725072502695]}}, {"type": "Feature", "properties": {"norad_id": 37238, "name": "INTELSAT 17 (IS-17)", "group": "intelsat", "lat": 0.02200339430690749, "lon": 91.3567735368892, "alt_km": 35796.01045886331, "timestamp": "2025-12-06T20:37:55.727066+00:00", "meta": {"OBJECT_NAME": "INTELSAT 17 (IS-17)", "OBJECT_ID": "2010-065B", "EPOCH": "2025-12-06T12:16:05.108736", "MEAN_MOTION": 1.00271623, "ECCENTRICITY": 0.00024654, "INCLINATION": 0.0089, "RA_OF_ASC_NODE": 303.9749, "ARG_OF_PERICENTER": 308.7158, "MEAN_ANOMALY": 72.8813, "EPHEMERIS_TYPE": 0, "CLASSIFICATION_TYPE": "U", "NORAD_CAT_ID": 37238, "ELEMENT_SET_NO": 999, "REV_AT_EPOCH": 5131, "BSTAR": 0, "MEAN_MOTION_DOT": 5e-08, "MEAN_MOTION_DDOT": 0}, "tle": {"line1": "1 37238U 10065B   25340.51117024  .00000005  00000+0  00000+0 0  9993", "line2": "2 37238   0.0089 303.9749 0002465 308.7158  72.8813  1.00271623 51317"}}, "geometry": {"type": "Point", "coordinates": [91.3567735368892, 0.02200339430690749]}}, {"type": "Feature", "properties": {"norad_id": 37392, "name": "INTELSAT 28 (IS-28)", "group": "intelsat", "lat": -1.3013561050725617, "lon": -6.292118051612793, "alt_km": 35787.22609528198, "timestamp": "2025-12-06T20:37:55.727078+00:00", "meta": {"OBJECT_NAME": "INTELSAT 28 (IS-28)", "OBJECT_ID": "2011-016A", "EPOCH": "2025-12-06T10:05:25.124352", "MEAN_MOTION": 1.00270598, "ECCENTRICITY": 0.00041639, "INCLINATION": 1.3075, "RA_OF_ASC_NODE": 85.1332, "ARG_OF_PERICENTER": 176.629, "MEAN_ANOMALY": 293.3475, "EPHEMERIS_TYPE": 0, "CLASSIFICATION_TYPE": "U", "NORAD_CAT_ID": 37392, "ELEMENT_SET_NO": 999, "REV_AT_EPOCH": 5135, "BSTAR": 0, "MEAN_MOTION_DOT": -2.18e-06, "MEAN_MOTION_DDOT": 0}, "tle": {"line1": "1 37392U 11016A   25340.42042968 -.00000218  00000+0  00000+0 0  9992", "line2": "2 37392   1.3075  85.1332 0004163 176.6290 293.3475  1.00270598 51358"}}, "geometry": {"type": "Point", "coordinates": [-6.292118051612793, -1.3013561050725617]}}]}